{
 "generated_at": "2026-07-17T07:16:58Z",
 "sources": [
  {
   "name": "CelesTrak",
   "url": "https://celestrak.org/NORAD/elements/",
   "license": "frei verfügbar; Attribution. Ursprünglich USSPACECOM/Space-Track."
  },
  {
   "name": "GCAT (J. McDowell, planet4589.org)",
   "url": "https://planet4589.org/space/gcat/",
   "license": "CC-BY 4.0"
  }
 ],
 "satellites": [
  {
   "norad": 60541,
   "name": "UMBRA-09",
   "intl": "2024-149CB",
   "group": "sar",
   "gcat": {
    "class": "B",
    "category": "IMG-R",
    "owner": "UMBRA",
    "state": "US"
   },
   "omm": {
    "OBJECT_NAME": "UMBRA-09",
    "OBJECT_ID": "2024-149CB",
    "EPOCH": "2026-07-16T15:43:31.225728",
    "MEAN_MOTION": 15.18876443,
    "ECCENTRICITY": 0.0002071,
    "INCLINATION": 97.6973,
    "RA_OF_ASC_NODE": 285.3829,
    "ARG_OF_PERICENTER": 198.7933,
    "MEAN_ANOMALY": 161.3225,
    "EPHEMERIS_TYPE": 0,
    "CLASSIFICATION_TYPE": "U",
    "NORAD_CAT_ID": 60541,
    "ELEMENT_SET_NO": 999,
    "REV_AT_EPOCH": 10519,
    "BSTAR": 0.00042782,
    "MEAN_MOTION_DOT": 0.00008854,
    "MEAN_MOTION_DDOT": 0
   }
  },
  {
   "norad": 60547,
   "name": "UMBRA-10",
   "intl": "2024-149CH",
   "group": "sar",
   "gcat": {
    "class": "B",
    "category": "IMG-R",
    "owner": "UMBRA",
    "state": "US"
   },
   "omm": {
    "OBJECT_NAME": "UMBRA-10",
    "OBJECT_ID": "2024-149CH",
    "EPOCH": "2026-07-16T15:42:51.899904",
    "MEAN_MOTION": 15.18876664,
    "ECCENTRICITY": 0.0001728,
    "INCLINATION": 97.6978,
    "RA_OF_ASC_NODE": 285.4123,
    "ARG_OF_PERICENTER": 164.0739,
    "MEAN_ANOMALY": 196.055,
    "EPHEMERIS_TYPE": 0,
    "CLASSIFICATION_TYPE": "U",
    "NORAD_CAT_ID": 60547,
    "ELEMENT_SET_NO": 999,
    "REV_AT_EPOCH": 10520,
    "BSTAR": 0.00044679,
    "MEAN_MOTION_DOT": 0.0000925,
    "MEAN_MOTION_DDOT": 0
   }
  },
  {
   "norad": 66748,
   "name": "UMBRA-11",
   "intl": "2025-276CL",
   "group": "sar",
   "gcat": {
    "class": "B",
    "category": "IMG-R",
    "owner": "UMBRA",
    "state": "US"
   },
   "omm": {
    "OBJECT_NAME": "UMBRA-11",
    "OBJECT_ID": "2025-276CL",
    "EPOCH": "2026-07-16T20:53:21.912000",
    "MEAN_MOTION": 15.27821127,
    "ECCENTRICITY": 0.0002838,
    "INCLINATION": 97.4187,
    "RA_OF_ASC_NODE": 272.3387,
    "ARG_OF_PERICENTER": 180.8532,
    "MEAN_ANOMALY": 179.2703,
    "EPHEMERIS_TYPE": 0,
    "CLASSIFICATION_TYPE": "U",
    "NORAD_CAT_ID": 66748,
    "ELEMENT_SET_NO": 999,
    "REV_AT_EPOCH": 3502,
    "BSTAR": 0.00044728,
    "MEAN_MOTION_DOT": 0.00012086,
    "MEAN_MOTION_DDOT": 0
   }
  },
  {
   "norad": 67371,
   "name": "UMBRA-12",
   "intl": "2026-004J",
   "group": "sar",
   "gcat": {
    "class": "B",
    "category": "IMG-R",
    "owner": "UMBRA",
    "state": "US"
   },
   "omm": {
    "OBJECT_NAME": "UMBRA-12",
    "OBJECT_ID": "2026-004J",
    "EPOCH": "2026-07-16T12:46:39.849888",
    "MEAN_MOTION": 14.89538275,
    "ECCENTRICITY": 0.000733,
    "INCLINATION": 97.8023,
    "RA_OF_ASC_NODE": 195.9005,
    "ARG_OF_PERICENTER": 49.347,
    "MEAN_ANOMALY": 310.8384,
    "EPHEMERIS_TYPE": 0,
    "CLASSIFICATION_TYPE": "U",
    "NORAD_CAT_ID": 67371,
    "ELEMENT_SET_NO": 999,
    "REV_AT_EPOCH": 2767,
    "BSTAR": 0.00025185,
    "MEAN_MOTION_DOT": 0.00002347,
    "MEAN_MOTION_DDOT": 0
   }
  },
  {
   "norad": 39160,
   "name": "VNREDSAT 1",
   "intl": "2013-021B",
   "group": "resource",
   "gcat": {
    "class": "C",
    "category": "IMG",
    "owner": "VAST",
    "state": "VN"
   },
   "omm": {
    "OBJECT_NAME": "VNREDSAT 1",
    "OBJECT_ID": "2013-021B",
    "EPOCH": "2026-07-16T20:53:39.409728",
    "MEAN_MOTION": 14.64885055,
    "ECCENTRICITY": 0.0001578,
    "INCLINATION": 97.9063,
    "RA_OF_ASC_NODE": 250.1452,
    "ARG_OF_PERICENTER": 78.88,
    "MEAN_ANOMALY": 281.2581,
    "EPHEMERIS_TYPE": 0,
    "CLASSIFICATION_TYPE": "U",
    "NORAD_CAT_ID": 39160,
    "ELEMENT_SET_NO": 999,
    "REV_AT_EPOCH": 70463,
    "BSTAR": 0.000070169,
    "MEAN_MOTION_DOT": 0.0000033,
    "MEAN_MOTION_DDOT": 0
   }
  },
  {
   "norad": 32060,
   "name": "WORLDVIEW-1 (WV-1)",
   "intl": "2007-041A",
   "group": "resource",
   "gcat": {
    "class": "B",
    "category": "IMG",
    "owner": "DGLO",
    "state": "US"
   },
   "omm": {
    "OBJECT_NAME": "WORLDVIEW-1 (WV-1)",
    "OBJECT_ID": "2007-041A",
    "EPOCH": "2026-07-16T18:21:07.050816",
    "MEAN_MOTION": 15.24568766,
    "ECCENTRICITY": 0.0001676,
    "INCLINATION": 97.3908,
    "RA_OF_ASC_NODE": 317.0939,
    "ARG_OF_PERICENTER": 198.8827,
    "MEAN_ANOMALY": 161.2348,
    "EPHEMERIS_TYPE": 0,
    "CLASSIFICATION_TYPE": "U",
    "NORAD_CAT_ID": 32060,
    "ELEMENT_SET_NO": 999,
    "REV_AT_EPOCH": 4738,
    "BSTAR": 0.00012657,
    "MEAN_MOTION_DOT": 0.00003046,
    "MEAN_MOTION_DDOT": 0
   }
  },
  {
   "norad": 35946,
   "name": "WORLDVIEW-2 (WV-2)",
   "intl": "2009-055A",
   "group": "resource",
   "gcat": {
    "class": "B",
    "category": "IMG",
    "owner": "DGLO",
    "state": "US"
   },
   "omm": {
    "OBJECT_NAME": "WORLDVIEW-2 (WV-2)",
    "OBJECT_ID": "2009-055A",
    "EPOCH": "2026-07-16T19:22:37.314912",
    "MEAN_MOTION": 14.37907151,
    "ECCENTRICITY": 0.0005376,
    "INCLINATION": 98.4756,
    "RA_OF_ASC_NODE": 270.8537,
    "ARG_OF_PERICENTER": 125.9295,
    "MEAN_ANOMALY": 234.2391,
    "EPHEMERIS_TYPE": 0,
    "CLASSIFICATION_TYPE": "U",
    "NORAD_CAT_ID": 35946,
    "ELEMENT_SET_NO": 999,
    "REV_AT_EPOCH": 87990,
    "BSTAR": 0.000024629,
    "MEAN_MOTION_DOT": 3.1e-7,
    "MEAN_MOTION_DDOT": 0
   }
  },
  {
   "norad": 40115,
   "name": "WORLDVIEW-3 (WV-3)",
   "intl": "2014-048A",
   "group": "resource",
   "gcat": {
    "class": "B",
    "category": "IMG",
    "owner": "DGLO",
    "state": "US"
   },
   "omm": {
    "OBJECT_NAME": "WORLDVIEW-3 (WV-3)",
    "OBJECT_ID": "2014-048A",
    "EPOCH": "2026-07-16T19:32:30.660864",
    "MEAN_MOTION": 14.85065656,
    "ECCENTRICITY": 0.0001423,
    "INCLINATION": 97.8556,
    "RA_OF_ASC_NODE": 272.2369,
    "ARG_OF_PERICENTER": 153.3342,
    "MEAN_ANOMALY": 206.7946,
    "EPHEMERIS_TYPE": 0,
    "CLASSIFICATION_TYPE": "U",
    "NORAD_CAT_ID": 40115,
    "ELEMENT_SET_NO": 999,
    "REV_AT_EPOCH": 64630,
    "BSTAR": 0.000047888,
    "MEAN_MOTION_DOT": 0.00000356,
    "MEAN_MOTION_DDOT": 0
   }
  },
  {
   "norad": 36834,
   "name": "YAOGAN-10",
   "intl": "2010-038A",
   "group": "resource",
   "gcat": {
    "class": null,
    "category": null,
    "owner": null,
    "state": null
   },
   "omm": {
    "OBJECT_NAME": "YAOGAN-10",
    "OBJECT_ID": "2010-038A",
    "EPOCH": "2026-07-16T20:49:53.153184",
    "MEAN_MOTION": 14.85432784,
    "ECCENTRICITY": 0.0001691,
    "INCLINATION": 97.8966,
    "RA_OF_ASC_NODE": 221.0356,
    "ARG_OF_PERICENTER": 81.7122,
    "MEAN_ANOMALY": 41.5124,
    "EPHEMERIS_TYPE": 0,
    "CLASSIFICATION_TYPE": "U",
    "NORAD_CAT_ID": 36834,
    "ELEMENT_SET_NO": 999,
    "REV_AT_EPOCH": 86161,
    "BSTAR": 0.00009077,
    "MEAN_MOTION_DOT": 0.00000728,
    "MEAN_MOTION_DDOT": 0
   }
  },
  {
   "norad": 40143,
   "name": "YAOGAN-21",
   "intl": "2014-053A",
   "group": "resource",
   "gcat": {
    "class": "D",
    "category": "IMG",
    "owner": "ZZB",
    "state": "CN"
   },
   "omm": {
    "OBJECT_NAME": "YAOGAN-21",
    "OBJECT_ID": "2014-053A",
    "EPOCH": "2026-07-16T20:32:20.788224",
    "MEAN_MOTION": 15.26769421,
    "ECCENTRICITY": 0.000763,
    "INCLINATION": 97.1451,
    "RA_OF_ASC_NODE": 236.823,
    "ARG_OF_PERICENTER": 2.1597,
    "MEAN_ANOMALY": 357.9674,
    "EPHEMERIS_TYPE": 0,
    "CLASSIFICATION_TYPE": "U",
    "NORAD_CAT_ID": 40143,
    "ELEMENT_SET_NO": 999,
    "REV_AT_EPOCH": 65948,
    "BSTAR": 0.000091477,
    "MEAN_MOTION_DOT": 0.00002339,
    "MEAN_MOTION_DDOT": 0
   }
  }
 ]
}
